GLOBALSTAR M035         
1 25851U 99037A   25335.46179785 -.00000025  00000+0  14643-2 0  9991
2 25851  51.9977  41.9240 0013420 250.5783 201.6556 11.04540135114747
GLOBALSTAR M032         
1 25852U 99037B   25335.81344235  .00000058  00000+0  39905-2 0  9998
2 25852  51.9929 214.7778 0013528  87.1673 273.0675 11.19073979153552
GLOBALSTAR M051         
1 25853U 99037C   25335.72883757 -.00000108  00000+0 -88477-3 0  9993
2 25853  51.9820 356.7166 0000351 149.8839 210.1992 11.42205349151535
GLOBALSTAR M030         
1 25854U 99037D   25335.78743719 -.00000048  00000+0  56921-3 0  9994
2 25854  51.9842 152.0220 0003214  10.9216 349.1670 11.55109717169414
GLOBALSTAR M048         
1 25872U 99041A   25335.64131912 -.00000066  00000+0  10066-3 0  9990
2 25872  51.9392 298.4367 0013313 112.4497  58.7180 11.33860465143973
GLOBALSTAR M026         
1 25873U 99041B   25335.67905387 -.00000012  00000+0  19165-2 0  9998
2 25873  51.9966 157.6319 0001958 148.7696 293.2678 11.06848158167035
GLOBALSTAR M043         
1 25874U 99041C   25335.47820358 -.00000075  00000+0 -20786-3 0  9993
2 25874  51.9425  53.1305 0013492 233.4265 216.8260 11.25696366141719
GLOBALSTAR M028         
1 25875U 99041D   25335.75357581 -.00000099  00000+0  10927-4 0  9990
2 25875  51.9639  53.4062 0063664  75.8285 284.9638 12.50591938211144
